IRIDIUM 144             
1 43249U 18030A   25061.73494776  .00000089  00000+0  24597-4 0  9992
2 43249  86.3976 127.5278 0002218  90.7573 269.3877 14.34216353362587
IRIDIUM 149             
1 43250U 18030B   25061.60175200  .00000059  00000+0  13988-4 0  9997
2 43250  86.3977 127.5560 0002067  91.5268 268.6165 14.34216212362560
IRIDIUM 157             
1 43251U 18030C   25061.55100853  .00000427  00000+0  14559-3 0  9997
2 43251  86.3978 127.6197 0002157 103.5527 256.5909 14.34212213362537
IRIDIUM 140             
1 43252U 18030D   25061.70957693  .00000467  00000+0  15984-3 0  9994
2 43252  86.3977 127.5670 0002464  93.4528 266.6950 14.34212567362610
IRIDIUM 145             
1 43253U 18030E   25061.69688333  .00000484  00000+0  16566-3 0  9991
2 43253  86.3975 127.5457 0002058  85.2535 274.8895 14.34221719362548
IRIDIUM 146             
1 43254U 18030F   25061.60809503 -.00000039  00000+0 -20989-4 0  9990
2 43254  86.3976 127.5965 0002027  85.0318 275.1109 14.34216958362548
IRIDIUM 148             
1 43255U 18030G   25061.57638095 -.00000189  00000+0 -74727-4 0  9998
2 43255  86.3981 127.6457 0001936  94.4829 265.6588 14.34216936362575
IRIDIUM 142             
1 43256U 18030H   25061.68420712  .00000479  00000+0  16393-3 0  9990
2 43256  86.3975 127.5068 0001953  83.4735 276.6683 14.34215388362555
